NORAD_CAT_ID,OBJECT_NAME,OBJECT_TYPE,EPOCH,MEAN_MOTION,ECCENTRICITY,INCLINATION,RA_OF_ASC_NODE,ARG_OF_PERICENTER,MEAN_ANOMALY,BSTAR,MEAN_MOTION_DOT,MEAN_MOTION_DDOT,TLE_LINE0,TLE_LINE1,TLE_LINE2,SEMIMAJOR_AXIS,PERIOD,APOGEE,PERIGEE,DECAYED
52994.0,STARLINK-4256,PAYLOAD,2024-01-03 11:52:27,15.08846672,0.0001512,53.2158,68.3815,91.7012,268.4154,7.1171e-05,8.45e-06,0.0,0 STARLINK-4256,1 52994U 22076J   24003.49476677  .00000845  00000-0  71171-4 0  9993,2 52994  53.2158  68.3815 0001512  91.7012 268.4154 15.08846672 82642,6917.86,95.437,540.771,538.679,0.0
52994.0,STARLINK-4256,PAYLOAD,2024-01-04 10:07:52,15.08844006,0.0001565,53.2157,64.2183,90.8971,269.2201,0.00050247,7.719e-05,0.0,0 STARLINK-4256,1 52994U 22076J   24004.42213037  .00007719  00000-0  50247-3 0  9993,2 52994  53.2157  64.2183 0001565  90.8971 269.2201 15.08844006 83255,6917.868,95.437,540.816,538.65,0.0
52994.0,STARLINK-4256,PAYLOAD,2024-01-04 22:50:57,15.0884309,0.0001648,53.2157,61.8401,81.1104,279.0075,0.00032285,4.854e-05,0.0,0 STARLINK-4256,1 52994U 22076J   24004.95205124  .00004854  00000-0  32285-3 0  9998,2 52994  53.2157  61.8401 0001648  81.1104 279.0075 15.08843090 83333,6917.871,95.437,540.876,538.596,0.0
52994.0,STARLINK-4256,PAYLOAD,2024-01-05 13:09:25,15.08843736,0.0001473,53.2158,59.1613,100.0193,260.0965,0.00016752,2.379e-05,0.0,0 STARLINK-4256,1 52994U 22076J   24005.54820994  .00002379  00000-0  16752-3 0  9993,2 52994  53.2158  59.1613 0001473 100.0193 260.0965 15.08843736 82956,6917.869,95.437,540.753,538.715,0.0
52994.0,STARLINK-4256,PAYLOAD,2024-01-06 03:27:53,15.08840561,0.0001489,53.2159,56.484,109.6626,250.4527,0.00011294,1.51e-05,0.0,0 STARLINK-4256,1 52994U 22076J   24006.14437085  .00001510  00000-0  11294-3 0  9997,2 52994  53.2159  56.4840 0001489 109.6626 250.4527 15.08840561 83515,6917.879,95.438,540.774,538.714,0.0
52994.0,STARLINK-4256,PAYLOAD,2024-01-06 09:49:26,15.08844333,0.0001457,53.2161,55.2954,100.5461,259.5695,0.00014442,2.011e-05,0.0,0 STARLINK-4256,1 52994U 22076J   24006.40932923  .00002011  00000-0  14442-3 0  9992,2 52994  53.2161  55.2954 0001457 100.5461 259.5695 15.08844333 83082,6917.867,95.437,540.74,538.724,0.0
52994.0,STARLINK-4256,PAYLOAD,2024-01-07 09:40:13,15.08840255,0.0001582,53.2176,50.8375,103.6904,256.4265,9.5635e-05,1.234e-05,0.0,0 STARLINK-4256,1 52994U 22076J   24007.40293037  .00001234  00000-0  95635-4 0  9999,2 52994  53.2176  50.8375 0001582 103.6904 256.4265 15.08840255 83708,6917.88,95.438,540.839,538.65,0.0
52994.0,STARLINK-4256,PAYLOAD,2024-01-07 12:50:59,15.08846736,0.0001394,53.217,50.2406,110.2926,249.8216,6.3774e-05,7.27e-06,0.0,0 STARLINK-4256,1 52994U 22076J   24007.53540630  .00000727  00000-0  63774-4 0  9992,2 52994  53.2170  50.2406 0001394 110.2926 249.8216 15.08846736 83252,6917.86,95.437,540.689,538.76,0.0
52994.0,STARLINK-4256,PAYLOAD,2024-01-08 09:31:00,15.08836574,0.0001602,53.2181,46.3772,105.9776,254.1393,3.8432e-05,3.24e-06,0.0,0 STARLINK-4256,1 52994U 22076J   24008.39653443  .00000324  00000-0  38432-4 0  9990,2 52994  53.2181  46.3772 0001602 105.9776 254.1393 15.08836574 83852,6917.891,95.438,540.864,538.648,0.0
52994.0,STARLINK-4256,PAYLOAD,2024-01-09 07:46:25,15.08819522,0.0001528,53.217,42.2112,102.7546,257.3617,-6.9529e-05,-1.394e-05,0.0,0 STARLINK-4256,1 52994U 22076J   24009.32391169 -.00001394  00000-0 -69529-4 0  9999,2 52994  53.2170  42.2112 0001528 102.7546 257.3617 15.08819522 83993,6917.943,95.439,540.865,538.751,0.0
52994.0,STARLINK-4256,PAYLOAD,2024-01-10 01:15:40,15.08832585,0.0001491,53.2171,38.9407,99.2265,260.8895,8.0849e-05,9.99e-06,0.0,0 STARLINK-4256,1 52994U 22076J   24010.05254647  .00000999  00000-0  80849-4 0  9996,2 52994  53.2171  38.9407 0001491  99.2265 260.8895 15.08832585 84105,6917.903,95.438,540.8,538.737,0.0
52994.0,STARLINK-4256,PAYLOAD,2024-01-10 09:12:35,15.08844589,0.000151,53.2168,37.4552,93.0817,267.0348,0.00028678,4.28e-05,0.0,0 STARLINK-4256,1 52994U 22076J   24010.38374099  .00004280  00000-0  28678-3 0  9994,2 52994  53.2168  37.4552 0001510  93.0817 267.0348 15.08844589 84157,6917.866,95.437,540.776,538.687,0.0
52994.0,STARLINK-4256,PAYLOAD,2024-01-11 09:03:21,15.08865713,0.0001547,53.2161,32.9942,90.67,269.447,0.00069374,0.00010778,0.0,0 STARLINK-4256,1 52994U 22076J   24011.37733651  .00010778  00000-0  69374-3 0  9994,2 52994  53.2161  32.9942 0001547  90.6700 269.4470 15.08865713 83835,6917.802,95.436,540.737,538.597,0.0
52994.0,STARLINK-4256,PAYLOAD,2024-01-12 00:57:13,15.08851411,0.0001557,53.2161,30.0212,94.5769,265.5401,0.00022121,3.235e-05,0.0,0 STARLINK-4256,1 52994U 22076J   24012.03973502  .00003235  00000-0  22121-3 0  9998,2 52994  53.2161  30.0212 0001557  94.5769 265.5401 15.08851411 84408,6917.846,95.437,540.788,538.633,0.0
52994.0,STARLINK-4256,PAYLOAD,2024-01-12 10:29:31,15.08852,0.0001602,53.2156,28.2362,85.5903,274.5272,0.00018062,2.589e-05,0.0,0 STARLINK-4256,1 52994U 22076J   24012.43717415  .00002589  00000-0  18062-3 0  9991,2 52994  53.2156  28.2362 0001602  85.5903 274.5272 15.08852000 83992,6917.844,95.437,540.817,538.6,0.0
52994.0,STARLINK-4256,PAYLOAD,2024-01-13 03:58:46,15.08839876,0.0001605,53.2168,24.963,88.1389,271.9787,1.4845e-05,-5.2e-07,0.0,0 STARLINK-4256,1 52994U 22076J   24013.16581720 -.00000052  00000-0  14845-4 0  9990,2 52994  53.2168  24.9630 0001605  88.1389 271.9787 15.08839876 84579,6917.881,95.438,540.856,538.635,0.0
52994.0,STARLINK-4256,PAYLOAD,2024-01-13 07:09:32,15.08843436,0.0001609,53.2165,24.3675,94.8722,265.2454,2.5303e-05,1.15e-06,0.0,0 STARLINK-4256,1 52994U 22076J   24013.29829560  .00000115  00000-0  25303-4 0  9991,2 52994  53.2165  24.3675 0001609  94.8722 265.2454 15.08843436 84123,6917.87,95.437,540.848,538.622,0.0
52994.0,STARLINK-4256,PAYLOAD,2024-01-14 05:24:56,15.08840087,0.0001729,53.2158,20.2073,109.0143,251.1037,0.00011251,1.503e-05,0.0,0 STARLINK-4256,1 52994U 22076J   24014.22565962  .00001503  00000-0  11251-3 0  9996,2 52994  53.2158  20.2073 0001729 109.0143 251.1037 15.08840087 84738,6917.88,95.438,540.941,538.549,0.0
52994.0,STARLINK-4256,PAYLOAD,2024-01-14 10:11:06,15.08842411,0.0001831,53.2156,19.3119,116.5925,243.5255,0.00020869,3.035e-05,0.0,0 STARLINK-4256,1 52994U 22076J   24014.42437894  .00003035  00000-0  20869-3 0  9997,2 52994  53.2156  19.3119 0001831 116.5925 243.5255 15.08842411 84292,6917.873,95.437,541.005,538.471,0.0
52994.0,STARLINK-4256,PAYLOAD,2024-01-15 05:15:44,15.08848329,0.0001521,53.2163,15.7424,87.855,272.2617,0.0002965,4.435e-05,0.0,0 STARLINK-4256,1 52994U 22076J   24015.21925949  .00004435  00000-0  29650-3 0  9990,2 52994  53.2163  15.7424 0001521  87.8550 272.2617 15.08848329 84418,6917.855,95.437,540.772,538.668,0.0
52994.0,STARLINK-4256,PAYLOAD,2024-01-16 00:20:22,15.08832963,0.0001678,53.2177,12.1757,91.8491,268.2694,0.00026069,3.863e-05,0.0,0 STARLINK-4256,1 52994U 22076J   24016.01414634  .00003863  00000-0  26069-3 0  9998,2 52994  53.2177  12.1757 0001678  91.8491 268.2694 15.08832963 85008,6917.902,95.438,540.928,538.606,0.0
52994.0,STARLINK-4256,PAYLOAD,2024-01-16 03:31:08,15.08829394,0.0001787,53.218,11.58,101.0465,259.0728,0.00040973,6.237e-05,0.0,0 STARLINK-4256,1 52994U 22076J   24016.14662844  .00006237  00000-0  40973-3 0  9998,2 52994  53.2180  11.5800 0001787 101.0465 259.0728 15.08829394 84559,6917.913,95.438,541.014,538.542,0.0
52994.0,STARLINK-4256,PAYLOAD,2024-01-17 03:21:55,15.08836615,0.0002043,53.2181,7.1231,108.5857,251.5357,0.00023762,3.495e-05,0.0,0 STARLINK-4256,1 52994U 22076J   24017.14022482  .00003495  00000-0  23762-3 0  9997,2 52994  53.2181   7.1231 0002043 108.5857 251.5357 15.08836615 85170,6917.891,95.438,541.169,538.342,0.0
52994.0,STARLINK-4256,PAYLOAD,2024-01-17 06:32:41,15.08847807,0.0001605,53.2175,6.531,96.504,263.6135,7.8638e-05,9.64e-06,0.0,0 STARLINK-4256,1 52994U 22076J   24017.27269969  .00000964  00000-0  78638-4 0  9995,2 52994  53.2175   6.5310 0001605  96.5040 263.6135 15.08847807 85192,6917.857,95.437,540.832,538.611,0.0
52994.0,STARLINK-4256,PAYLOAD,2024-01-18 03:12:42,15.08838755,0.0001647,53.2174,2.6653,70.9784,289.1387,0.00010671,1.411e-05,0.0,0 STARLINK-4256,1 52994U 22076J   24018.13382701  .00001411  00000-0  10671-3 0  9991,2 52994  53.2174   2.6653 0001647  70.9784 289.1387 15.08838755 85324,6917.884,95.438,540.889,538.61,0.0
52994.0,STARLINK-4256,PAYLOAD,2024-01-18 07:58:51,15.08842889,0.0001506,53.2173,1.7713,87.8571,272.2594,0.00011868,1.601e-05,0.0,0 STARLINK-4256,1 52994U 22076J   24018.33254349  .00001601  00000-0  11868-3 0  9999,2 52994  53.2173   1.7713 0001506  87.8571 272.2594 15.08842889 84881,6917.872,95.437,540.778,538.695,0.0
52994.0,STARLINK-4256,PAYLOAD,2024-01-19 04:38:52,15.08848178,0.0001435,53.2185,357.9026,97.0185,263.097,5.4135e-05,5.74e-06,0.0,0 STARLINK-4256,1 52994U 22076J   24019.19366419  .00000574  00000-0  54135-4 0  9999,2 52994  53.2185 357.9026 0001435  97.0185 263.0970 15.08848178 85482,6917.855,95.437,540.713,538.728,0.0
52994.0,STARLINK-4256,PAYLOAD,2024-01-19 22:08:07,15.08841986,0.0001498,53.217,354.6328,98.742,261.3742,0.00014848,2.076e-05,0.0,0 STARLINK-4256,1 52994U 22076J   24019.92230573  .00002076  00000-0  14848-3 0  9996,2 52994  53.2170 354.6328 0001498  98.7420 261.3742 15.08841986 85123,6917.874,95.437,540.776,538.703,0.0
52994.0,STARLINK-4256,PAYLOAD,2024-01-20 04:29:39,15.08850156,0.0001496,53.2171,353.444,94.1068,266.0095,0.00025344,3.749e-05,0.0,0 STARLINK-4256,1 52994U 22076J   24020.18726206  .00003749  00000-0  25344-3 0  9990,2 52994  53.2171 353.4440 0001496  94.1068 266.0095 15.08850156 85168,6917.849,95.437,540.749,538.679,0.0
52994.0,STARLINK-4256,PAYLOAD,2024-01-21 04:20:26,15.08841942,0.000157,53.217,348.983,108.942,251.1742,9.3882e-05,1.207e-05,0.0,0 STARLINK-4256,1 52994U 22076J   24021.18086631  .00001207  00000-0  93882-4 0  9992,2 52994  53.2170 348.9830 0001570 108.9420 251.1742 15.08841942 85783,6917.874,95.437,540.826,538.653,0.0
